{
  "type": "FeatureCollection",
  "features": [
    {
      "type": "Feature",
      "properties": {
        "id": "site-boundary",
        "kind": "site-boundary",
        "color": "#f4efe4",
        "active": false
      },
      "geometry": {
        "type": "Polygon",
        "coordinates": [
          [
            [
              101.96233958460243,
              2.4028797824540504
            ],
            [
              101.96243638919856,
              2.4047899908166954
            ],
            [
              101.96339233463732,
              2.407764107375428
            ],
            [
              101.96501385741442,
              2.410399746911466
            ],
            [
              101.96560678556858,
              2.4105569151880246
            ],
            [
              101.96742187175033,
              2.408030130698336
            ],
            [
              101.96928536023103,
              2.4068815907450443
            ],
            [
              101.9689831445923,
              2.4064584442029826
            ],
            [
              101.97084647094704,
              2.4047538721372916
            ],
            [
              101.9726615571899,
              2.4025535586307
            ],
            [
              101.97297617210916,
              2.402783267417675
            ],
            [
              101.97460974969238,
              2.4001234789926684
            ],
            [
              101.97774379850125,
              2.3983583438109406
            ],
            [
              101.97673553210723,
              2.396500898380495
            ],
            [
              101.9786578177036,
              2.3956767273110273
            ],
            [
              101.97909935450463,
              2.396399839491494
            ],
            [
              101.98039416925252,
              2.3952995204729888
            ],
            [
              101.97894210030643,
              2.3932563086423073
            ],
            [
              101.97793775261943,
              2.3919264058140612
            ],
            [
              101.97718751699779,
              2.391297724027865
            ],
            [
              101.97654618654656,
              2.3909471129073268
            ],
            [
              101.97580805149914,
              2.3907778523342103
            ],
            [
              101.97523932449536,
              2.3908745726640035
            ],
            [
              101.97482790496076,
              2.391104283421072
            ],
            [
              101.97444068657484,
              2.3914790745729704
            ],
            [
              101.97441648542679,
              2.392192386480815
            ],
            [
              101.9744178087276,
              2.3923930099920625
            ],
            [
              101.97431003589355,
              2.3928883328352555
            ],
            [
              101.97411065614682,
              2.39356670948618
            ],
            [
              101.97383446399903,
              2.394458508562977
            ],
            [
              101.97344120487554,
              2.3957905881721757
            ],
            [
              101.97245326124772,
              2.397534747991074
            ],
            [
              101.97184898503258,
              2.398291827666469
            ],
            [
              101.97124470881863,
              2.399125573153043
            ],
            [
              101.96840056861515,
              2.4009401391347582
            ],
            [
              101.96689171205708,
              2.40187010650979
            ],
            [
              101.96568315962242,
              2.402176770772158
            ],
            [
              101.96396624782614,
              2.4025696842700057
            ],
            [
              101.96233958460243,
              2.4028797824540504
            ]
          ]
        ]
      }
    },
    {
      "type": "Feature",
      "properties": {
        "id": "uniti",
        "kind": "zone-polygon",
        "color": "#7a2f34",
        "active": false
      },
      "geometry": {
        "type": "Polygon",
        "coordinates": [
          [
            [
              101.96928180733914,
              2.4068816289329504
            ],
            [
              101.96741991114845,
              2.408039899555078
            ],
            [
              101.9663788704575,
              2.4094787944165006
            ],
            [
              101.96548981311952,
              2.408805062391991
            ],
            [
              101.96458843157677,
              2.4096963123378004
            ],
            [
              101.96402911463821,
              2.408798809476721
            ],
            [
              101.96341047622758,
              2.4077912347961927
            ],
            [
              101.96466470209202,
              2.4067667253331564
            ],
            [
              101.96546130500587,
              2.4060724292264553
            ],
            [
              101.96722000634577,
              2.4045376982669353
            ],
            [
              101.97035960275616,
              2.401720392499243
            ],
            [
              101.97215631087954,
              2.4002471241333154
            ],
            [
              101.97389358319236,
              2.3988415907913208
            ],
            [
              101.97557683740013,
              2.397550207241025
            ],
            [
              101.97674947598892,
              2.3965226649855396
            ],
            [
              101.97774493675746,
              2.398360654561884
            ],
            [
              101.97655317167624,
              2.3990324287402984
            ],
            [
              101.97459650499621,
              2.4001425556699445
            ],
            [
              101.9736429732514,
              2.4017069806359927
            ],
            [
              101.97306583559498,
              2.4026296193490566
            ],
            [
              101.97298553818513,
              2.4027950871571306
            ],
            [
              101.97266434853128,
              2.402554406689646
            ],
            [
              101.97087271256851,
              2.404735549553209
            ],
            [
              101.96899069900616,
              2.4064654535564216
            ],
            [
              101.96928180733914,
              2.4068816289329504
            ]
          ]
        ]
      }
    },
    {
      "type": "Feature",
      "properties": {
        "id": "marina",
        "kind": "zone-polygon",
        "color": "#6f8f5c",
        "active": false
      },
      "geometry": {
        "type": "Polygon",
        "coordinates": [
          [
            [
              101.97138273503481,
              2.3991478326875324
            ],
            [
              101.9724275527928,
              2.397837517662694
            ],
            [
              101.97346692878,
              2.3991859871143646
            ],
            [
              101.97029970381931,
              2.4017739914485077
            ],
            [
              101.96799783968487,
              2.4038400418194215
            ],
            [
              101.96690955071614,
              2.4048036672405715
            ],
            [
              101.96482875581131,
              2.4066201812622694
            ],
            [
              101.96340230432162,
              2.4078025062948996
            ],
            [
              101.96242292779021,
              2.4047542419770878
            ],
            [
              101.96238151036943,
              2.403456427394829
            ],
            [
              101.96481365129159,
              2.402724214274272
            ],
            [
              101.96550100576945,
              2.4025194233795872
            ],
            [
              101.96673035308822,
              2.4021748996223806
            ],
            [
              101.97138273503481,
              2.3991478326875324
            ]
          ]
        ]
      }
    },
    {
      "type": "Feature",
      "properties": {
        "id": "nature",
        "kind": "zone-polygon",
        "color": "#3d5a99",
        "active": false
      },
      "geometry": {
        "type": "Polygon",
        "coordinates": [
          [
            [
              101.9757255682365,
              2.3909703327401957
            ],
            [
              101.97655628289573,
              2.391047959378568
            ],
            [
              101.97676320416195,
              2.391495898381663
            ],
            [
              101.9757228500439,
              2.393103883331918
            ],
            [
              101.97641833540933,
              2.393528850470261
            ],
            [
              101.97536055895422,
              2.3954356167402664
            ],
            [
              101.97477775671403,
              2.3961980144231596
            ],
            [
              101.97364419741098,
              2.3957692649274933
            ],
            [
              101.97455256631974,
              2.392234992914581
            ],
            [
              101.97454713928909,
              2.3920614461930114
            ],
            [
              101.97457427449314,
              2.3918988094192173
            ],
            [
              101.97459598267926,
              2.3917035733922773
            ],
            [
              101.9746828153618,
              2.391519247308736
            ],
            [
              101.97507898954854,
              2.3912155648758358
            ],
            [
              101.97535093322097,
              2.3910667444507396
            ],
            [
              101.9757255682365,
              2.3909703327401957
            ]
          ]
        ]
      }
    },
    {
      "type": "Feature",
      "properties": {
        "id": "shipyard",
        "kind": "zone-polygon",
        "color": "#c1622c",
        "active": false
      },
      "geometry": {
        "type": "Polygon",
        "coordinates": [
          [
            [
              101.97934434239704,
              2.393829797577922
            ],
            [
              101.9803956765582,
              2.3953005560980927
            ],
            [
              101.97908946798651,
              2.3963947957718688
            ],
            [
              101.97866450520081,
              2.3956619396366676
            ],
            [
              101.97759352262324,
              2.3945799749535723
            ],
            [
              101.97697645337382,
              2.3939750770527297
            ],
            [
              101.97629534863603,
              2.393765689256
            ],
            [
              101.9764219800731,
              2.393521532152178
            ],
            [
              101.97571758970372,
              2.3930969400565942
            ],
            [
              101.97667230061722,
              2.391625407529915
            ],
            [
              101.97697501383408,
              2.3911833658304715
            ],
            [
              101.97720204874668,
              2.3912996926073475
            ],
            [
              101.97794720447405,
              2.3919278570461273
            ],
            [
              101.97934434239704,
              2.393829797577922
            ]
          ]
        ]
      }
    },
    {
      "type": "Feature",
      "properties": {
        "id": "walit",
        "kind": "zone-polygon",
        "color": "#9c4f8f",
        "active": false
      },
      "geometry": {
        "type": "Polygon",
        "coordinates": [
          [
            [
              101.97560541269729,
              2.3950112513137185
            ],
            [
              101.97628922014934,
              2.3937749657208798
            ],
            [
              101.97697302762577,
              2.393970168784236
            ],
            [
              101.97763512695462,
              2.394620845457311
            ],
            [
              101.97866626518754,
              2.395672772098223
            ],
            [
              101.97673201176525,
              2.396511032352876
            ],
            [
              101.97560541269729,
              2.3950112513137185
            ]
          ]
        ]
      }
    }
  ]
}